KUIPER-00112            
1 65150U 25171U   25342.66670139 -.00029725  00000+0 -38308-2 0  9997
2 65150  51.8985 198.0973 0009557 220.3270  47.5685 14.80507693  5737
KUIPER-00114            
1 65151U 25171V   25342.35818680 -.00007935  00000+0 -10133-2 0  9994
2 65151  51.8988 219.4745 0006977 152.1762 207.9575 14.79897761 19110
KUIPER-00115            
1 65152U 25171W   25342.02848796 -.00001345  00000+0 -14696-3 0  9998
2 65152  51.9003 213.4115 0009899 182.1073 177.9849 14.79930571 19172
KUIPER-00116            
1 65153U 25171X   25342.66469631  .00003494  00000+0  48703-3 0  9997
2 65153  51.8995 215.6433 0010716 147.2063 212.9567 14.79928857 19193
KUIPER-00118            
1 65154U 25171Y   25342.66203297  .00006456  00000+0  87570-3 0  9998
2 65154  51.8990 218.1098 0001867 130.6035 229.5090 14.79901077 19163
KUIPER-00119            
1 65155U 25171Z   25342.33778140  .00000426  00000+0  85056-4 0  9996
2 65155  51.8983 207.1258 0008567 176.0882 184.0149 14.79968205 19289
KUIPER-00120            
1 65762U 25217A   25342.62595080  .00007415  00000+0  73660-3 0  9995
2 65762  51.8960  94.9310 0016748 351.2291   8.8382 14.92501529 11269
KUIPER-00132            
1 65763U 25217B   25342.54222567  .00044644  00000+0  12079-2 0  9995
2 65763  51.8641  85.0494 0006777   1.3933 358.7071 15.37235417 11393
